{"type": "FeatureCollection", "features": [ {"type": "Feature", "properties": {"norad_id": 66426, "name": "STARLINK-35589", "group": "last-30-days", "lat": 25.771582945608216, "lon": -115.14794170309086, "alt_km": 416.78775043890073, "timestamp": "2025-12-04T09:47:36.301578+00:00", "meta": {"OBJECT_NAME": "STARLINK-35589", "OBJECT_ID": "2025-259E", "EPOCH": "2025-12-03T22:00:03.000096", "MEAN_MOTION": 15.50971112, "ECCENTRICITY": 0.00015703, "INCLINATION": 43.0003, "RA_OF_ASC_NODE": 98.9296, "ARG_OF_PERICENTER": 271.2526, "MEAN_ANOMALY": 4.1184, "EPHEMERIS_TYPE": 0, "CLASSIFICATION_TYPE": "U", "NORAD_CAT_ID": 66426, "ELEMENT_SET_NO": 999, "REV_AT_EPOCH": 486, "BSTAR": -0.03616798, "MEAN_MOTION_DOT": -0.01930415, "MEAN_MOTION_DDOT": 0}, "tle": {"line1": "1 66426U 25259E   25337.91670139 -.01930415  00000+0 -36168-1 0  9992", "line2": "2 66426  43.0003  98.9296 0001570 271.2526   4.1184 15.50971112  4865"}}, "geometry": {"type": "Point", "coordinates": [-115.14794170309086, 25.771582945608216]}}, {"type": "Feature", "properties": {"norad_id": 66427, "name": "STARLINK-35611", "group": "last-30-days", "lat": 23.96299433966465, "lon": -112.4382647209905, "alt_km": 412.37325136471827, "timestamp": "2025-12-04T09:47:36.301588+00:00", "meta": {"OBJECT_NAME": "STARLINK-35611", "OBJECT_ID": "2025-259F", "EPOCH": "2025-12-03T22:00:03.000096", "MEAN_MOTION": 15.50664734, "ECCENTRICITY": 0.00016076, "INCLINATION": 43.0001, "RA_OF_ASC_NODE": 98.9234, "ARG_OF_PERICENTER": 275.2873, "MEAN_ANOMALY": 2.0319, "EPHEMERIS_TYPE": 0, "CLASSIFICATION_TYPE": "U", "NORAD_CAT_ID": 66427, "ELEMENT_SET_NO": 999, "REV_AT_EPOCH": 486, "BSTAR": -0.0034758536, "MEAN_MOTION_DOT": -0.00199753, "MEAN_MOTION_DDOT": 0}, "tle": {"line1": "1 66427U 25259F   25337.91670139 -.00199753  00000+0 -34759-2 0  9999", "line2": "2 66427  43.0001  98.9234 0001607 275.2873   2.0319 15.50664734  4862"}}, "geometry": {"type": "Point", "coordinates": [-112.4382647209905, 23.96299433966465]}}, {"type": "Feature", "properties": {"norad_id": 66428, "name": "STARLINK-35610", "group": "last-30-days", "lat": 22.769960964882017, "lon": -110.72791091599497, "alt_km": 412.1476631692385, "timestamp": "2025-12-04T09:47:36.301600+00:00", "meta": {"OBJECT_NAME": "STARLINK-35610", "OBJECT_ID": "2025-259G", "EPOCH": "2025-12-03T22:00:03.000096", "MEAN_MOTION": 15.50604237, "ECCENTRICITY": 0.00015881, "INCLINATION": 43.0003, "RA_OF_ASC_NODE": 98.9187, "ARG_OF_PERICENTER": 274.5334, "MEAN_ANOMALY": 4.7081, "EPHEMERIS_TYPE": 0, "CLASSIFICATION_TYPE": "U", "NORAD_CAT_ID": 66428, "ELEMENT_SET_NO": 999, "REV_AT_EPOCH": 486, "BSTAR": -0.0003639439, "MEAN_MOTION_DOT": -0.00021653, "MEAN_MOTION_DDOT": 0}, "tle": {"line1": "1 66428U 25259G   25337.91670139 -.00021653  00000+0 -36394-3 0  9991", "line2": "2 66428  43.0003  98.9187 0001588 274.5334   4.7081 15.50604237  4861"}}, "geometry": {"type": "Point", "coordinates": [-110.72791091599497, 22.769960964882017]}}, {"type": "Feature", "properties": {"norad_id": 66429, "name": "STARLINK-35533", "group": "last-30-days", "lat": 21.613948161990432, "lon": -109.12395685960065, "alt_km": 412.5266132900888, "timestamp": "2025-12-04T09:47:36.301611+00:00", "meta": {"OBJECT_NAME": "STARLINK-35533", "OBJECT_ID": "2025-259H", "EPOCH": "2025-12-03T22:00:03.000096", "MEAN_MOTION": 15.50657211, "ECCENTRICITY": 0.00015984, "INCLINATION": 43.0003, "RA_OF_ASC_NODE": 98.913, "ARG_OF_PERICENTER": 272.4408, "MEAN_ANOMALY": 8.7091, "EPHEMERIS_TYPE": 0, "CLASSIFICATION_TYPE": "U", "NORAD_CAT_ID": 66429, "ELEMENT_SET_NO": 999, "REV_AT_EPOCH": 486, "BSTAR": -0.0026510189, "MEAN_MOTION_DOT": -0.00153288, "MEAN_MOTION_DDOT": 0}, "tle": {"line1": "1 66429U 25259H   25337.91670139 -.00153288  00000+0 -26510-2 0  9990", "line2": "2 66429  43.0003  98.9130 0001598 272.4408   8.7091 15.50657211  4865"}}, "geometry": {"type": "Point", "coordinates": [-109.12395685960065, 21.613948161990432]}}, {"type": "Feature", "properties": {"norad_id": 66430, "name": "STARLINK-35470", "group": "last-30-days", "lat": 20.42707408327962, "lon": -107.52300234414211, "alt_km": 412.6099473661707, "timestamp": "2025-12-04T09:47:36.301621+00:00", "meta": {"OBJECT_NAME": "STARLINK-35470", "OBJECT_ID": "2025-259J", "EPOCH": "2025-12-03T22:00:03.000096", "MEAN_MOTION": 15.50637136, "ECCENTRICITY": 0.00015948, "INCLINATION": 43.0001, "RA_OF_ASC_NODE": 98.9094, "ARG_OF_PERICENTER": 270.8187, "MEAN_ANOMALY": 12.2451, "EPHEMERIS_TYPE": 0, "CLASSIFICATION_TYPE": "U", "NORAD_CAT_ID": 66430, "ELEMENT_SET_NO": 999, "REV_AT_EPOCH": 486, "BSTAR": -0.0020318085, "MEAN_MOTION_DOT": -0.00118005, "MEAN_MOTION_DDOT": 0}, "tle": {"line1": "1 66430U 25259J   25337.91670139 -.00118005  00000+0 -20318-2 0  9990", "line2": "2 66430  43.0001  98.9094 0001594 270.8187  12.2451 15.50637136  4860"}}, "geometry": {"type": "Point", "coordinates": [-107.52300234414211, 20.42707408327962]}}, {"type": "Feature", "properties": {"norad_id": 66431, "name": "STARLINK-35439", "group": "last-30-days", "lat": 19.217217712943537, "lon": -105.93757596251032, "alt_km": 412.77292029882756, "timestamp": "2025-12-04T09:47:36.301631+00:00", "meta": {"OBJECT_NAME": "STARLINK-35439", "OBJECT_ID": "2025-259K", "EPOCH": "2025-12-03T22:00:03.000096", "MEAN_MOTION": 15.50666097, "ECCENTRICITY": 0.00016506, "INCLINATION": 43.0003, "RA_OF_ASC_NODE": 98.9036, "ARG_OF_PERICENTER": 265.3994, "MEAN_ANOMALY": 19.5847, "EPHEMERIS_TYPE": 0, "CLASSIFICATION_TYPE": "U", "NORAD_CAT_ID": 66431, "ELEMENT_SET_NO": 999, "REV_AT_EPOCH": 486, "BSTAR": -0.0029431273, "MEAN_MOTION_DOT": -0.0016984, "MEAN_MOTION_DDOT": 0}, "tle": {"line1": "1 66431U 25259K   25337.91670139 -.00169840  00000+0 -29431-2 0  9999", "line2": "2 66431  43.0003  98.9036 0001650 265.3994  19.5847 15.50666097  4864"}}, "geometry": {"type": "Point", "coordinates": [-105.93757596251032, 19.217217712943537]}}, {"type": "Feature", "properties": {"norad_id": 66432, "name": "STARLINK-35446", "group": "last-30-days", "lat": 18.016433671367516, "lon": -104.40545061322605, "alt_km": 412.866540673067, "timestamp": "2025-12-04T09:47:36.301644+00:00", "meta": {"OBJECT_NAME": "STARLINK-35446", "OBJECT_ID": "2025-259L", "EPOCH": "2025-12-04T04:00:03.000096", "MEAN_MOTION": 15.50660234, "ECCENTRICITY": 0.0001645, "INCLINATION": 43.0005, "RA_OF_ASC_NODE": 97.434, "ARG_OF_PERICENTER": 289.3926, "MEAN_ANOMALY": 314.614, "EPHEMERIS_TYPE": 0, "CLASSIFICATION_TYPE": "U", "NORAD_CAT_ID": 66432, "ELEMENT_SET_NO": 999, "REV_AT_EPOCH": 490, "BSTAR": -0.00097615, "MEAN_MOTION_DOT": -0.00057356, "MEAN_MOTION_DDOT": 0}, "tle": {"line1": "1 66432U 25259L   25338.16670139 -.00057356  00000+0 -97615-3 0  9996", "line2": "2 66432  43.0005  97.4340 0001645 289.3926 314.6140 15.50660234  4901"}}, "geometry": {"type": "Point", "coordinates": [-104.40545061322605, 18.016433671367516]}}, {"type": "Feature", "properties": {"norad_id": 66433, "name": "STARLINK-35457", "group": "last-30-days", "lat": 16.740153700838146, "lon": -102.81204495013543, "alt_km": 412.7847313371658, "timestamp": "2025-12-04T09:47:36.301659+00:00", "meta": {"OBJECT_NAME": "STARLINK-35457", "OBJECT_ID": "2025-259M", "EPOCH": "2025-12-04T04:00:03.000096", "MEAN_MOTION": 15.50624665, "ECCENTRICITY": 0.000149, "INCLINATION": 43.0004, "RA_OF_ASC_NODE": 97.4307, "ARG_OF_PERICENTER": 262.575, "MEAN_ANOMALY": 343.4684, "EPHEMERIS_TYPE": 0, "CLASSIFICATION_TYPE": "U", "NORAD_CAT_ID": 66433, "ELEMENT_SET_NO": 999, "REV_AT_EPOCH": 490, "BSTAR": -0.0022862, "MEAN_MOTION_DOT": -0.00132432, "MEAN_MOTION_DDOT": 0}, "tle": {"line1": "1 66433U 25259M   25338.16670139 -.00132432  00000+0 -22862-2 0  9997", "line2": "2 66433  43.0004  97.4307 0001490 262.5750 343.4684 15.50624665  4901"}}, "geometry": {"type": "Point", "coordinates": [-102.81204495013543, 16.740153700838146]}}, {"type": "Feature", "properties": {"norad_id": 66434, "name": "STARLINK-35389", "group": "last-30-days", "lat": 15.492188366762385, "lon": -101.28969434588568, "alt_km": 412.8790407186789, "timestamp": "2025-12-04T09:47:36.301670+00:00", "meta": {"OBJECT_NAME": "STARLINK-35389", "OBJECT_ID": "2025-259N", "EPOCH": "2025-12-04T04:00:03.000096", "MEAN_MOTION": 15.50640193, "ECCENTRICITY": 0.0001544, "INCLINATION": 43.0005, "RA_OF_ASC_NODE": 97.4266, "ARG_OF_PERICENTER": 258.2546, "MEAN_ANOMALY": 349.707, "EPHEMERIS_TYPE": 0, "CLASSIFICATION_TYPE": "U", "NORAD_CAT_ID": 66434, "ELEMENT_SET_NO": 999, "REV_AT_EPOCH": 490, "BSTAR": -0.002799, "MEAN_MOTION_DOT": -0.00161558, "MEAN_MOTION_DDOT": 0}, "tle": {"line1": "1 66434U 25259N   25338.16670139 -.00161558  00000+0 -27990-2 0  9996", "line2": "2 66434  43.0005  97.4266 0001544 258.2546 349.7070 15.50640193  4904"}}, "geometry": {"type": "Point", "coordinates": [-101.28969434588568, 15.492188366762385]}}, {"type": "Feature", "properties": {"norad_id": 66435, "name": "STARLINK-35502", "group": "last-30-days", "lat": 14.24383392648153, "lon": -99.79848601720968, "alt_km": 413.12298393555466, "timestamp": "2025-12-04T09:47:36.301680+00:00", "meta": {"OBJECT_NAME": "STARLINK-35502", "OBJECT_ID": "2025-259P", "EPOCH": "2025-12-04T04:00:03.000096", "MEAN_MOTION": 15.5062289, "ECCENTRICITY": 0.0001497, "INCLINATION": 43.0005, "RA_OF_ASC_NODE": 97.4216, "ARG_OF_PERICENTER": 263.3792, "MEAN_ANOMALY": 346.499, "EPHEMERIS_TYPE": 0, "CLASSIFICATION_TYPE": "U", "NORAD_CAT_ID": 66435, "ELEMENT_SET_NO": 999, "REV_AT_EPOCH": 490, "BSTAR": -0.0022465, "MEAN_MOTION_DOT": -0.00130169, "MEAN_MOTION_DDOT": 0}, "tle": {"line1": "1 66435U 25259P   25338.16670139 -.00130169  00000+0 -22465-2 0  9993", "line2": "2 66435  43.0005  97.4216 0001497 263.3792 346.4990 15.50622890  4906"}}, "geometry": {"type": "Point", "coordinates": [-99.79848601720968, 14.24383392648153]}}]}